FLOCK 4G-15             
1 62678U 25009BX  26068.71779869  .00012647  00000+0  47575-3 0  9991
2 62678  97.4054 151.1927 0003699 316.8208  43.2740 15.27266411121358
STARLINK-36445          
1 67313U 26002J   26068.09217221  .00027346  00000+0  99900-3 0  9997
2 67313  43.0014 328.9810 0001036 287.6942  72.3796 15.27599119 11143
